#aV2022 10  7  0  0  0.00000000     288 DD+AD WGS84 FIT  NGA
## 2230 432000.00000000   300.00000000 59859 0.0000000000000
+   32     1  2  3  4  5  6  7  8  9 10 11 12 13 14 15 16 17
+         18 19 20 21 22 23 24 25 26 27 28 29 30 31 32  0  0
+          0  0  0  0  0  0  0  0  0  0  0  0  0  0  0  0  0
+          0  0  0  0  0  0  0  0  0  0  0  0  0  0  0  0  0
+          0  0  0  0  0  0  0  0  0  0  0  0  0  0  0  0  0
++         2  2  2  2  2  2  2  2  2  2  2  2  2  2  2  2  2
++         2  2  2  2  2  2  2  2  2  2  2  2  2  2  2  0  0
++         0  0  0  0  0  0  0  0  0  0  0  0  0  0  0  0  0
++         0  0  0  0  0  0  0  0  0  0  0  0  0  0  0  0  0
++         0  0  0  0  0  0  0  0  0  0  0  0  0  0  0  0  0
%c cc cc ccc ccc cccc cccc cccc cccc ccccc ccccc ccccc ccccc
%c cc cc ccc ccc cccc cccc cccc cccc ccccc ccccc ccccc ccccc
%f  0.0000000  0.000000000  0.00000000000  0.000000000000000
%f  0.0000000  0.000000000  0.00000000000  0.000000000000000
%i    0    0    0    0      0      0      0      0         0
%i    0    0    0    0      0      0      0      0         0
/*      NGA, ST. LOUIS,MO.                                  
/*   EPHEMERIS COMPUTED FROM 2 DAYS OF DATA                 
/*   EPOCHA v8 SMOOTHER                                     
/*   G2139 IERS2010 SATIGS SATAPC                           
*  2022 10  7 13 25  0.00000000
P  1   3331.774258  14355.104328 -22404.965295    271.411935                    
V  1 -26942.187809   6074.954581    212.514071     -0.062052                    
P  2    906.404898 -16125.982935  21766.134090   -643.302292                    
V  2  24875.818669  -7842.864829  -6887.074827      0.014895                    
P  3   8897.699215  21690.810793 -12711.126848   -361.665325                    
V  3 -12308.452015 -10187.338220 -26151.046783     -0.047986                    
P  4    619.019796  23883.120486  11502.030016   -107.346334                    
V  4  -6872.280771  13149.586549 -27036.403613      0.059453                    
P  5   1369.938368 -17595.822887  19632.819152    -99.482117                    
V  5  19224.295193  16573.034056  13511.433984     -0.014499                    
P  6  25742.651410  -6665.438700    722.892351    484.195726                    
V  6   1253.793443   1631.521839 -32286.819453      0.112891                    
P  7  18945.252558   8182.928452  17403.987120    301.031583                    
V  7 -20184.603652   6427.403650  18936.218178     -0.036166                    
P  8  -5466.877845  25723.988356  -1861.732316    -87.789267                    
V  8  -3587.180713   1472.003462  31897.814158     -0.016678                    
P  9   9672.317008  15767.960375  18966.981024   -286.412317                    
V  9  -7715.509030  23069.679041 -15221.337377      0.050828                    
P 10 -21037.040315  -7842.063315 -14280.840193     -6.483146                    
V 10 -11499.423966 -14257.406722  24205.416980     -0.016782                    
P 11  20661.885963 -12066.768451  11491.012658    -23.253347                    
V 11  14775.696309   -448.761816 -27077.590921     -0.040218                    
P 12  -7020.717911 -22329.449524 -12917.391749   -289.451918                    
V 12  11702.244629  10973.803290 -25763.490928     -0.043792                    
P 13  13233.278937 -22468.628384   4324.647736    401.615678                    
V 13    122.604562   6323.631544  31428.547421      0.070931                    
P 14  21109.056516   9771.449027 -12914.276239    -97.369011                    
V 14   9109.165685  13844.473819  25236.809288      0.035772                    
P 15   2099.846536 -26237.802693  -2455.563039    -22.873355                    
V 15   4317.014451  -2016.877738  31061.064152      0.031297                    
P 16  -8843.692285  12512.967373  21366.289038   -525.822580                    
V 16 -17934.790872 -21291.863590   5428.284429     -0.006768                    
P 17  14961.002468   1213.779216 -21479.216044    666.456237                    
V 17  -9209.087699  26732.986675  -4746.058193      0.036946                    
P 18 -19770.152912  -6967.594908  16390.111342     23.013465                    
V 18  19883.638052  -6082.984509  21255.235751     -0.132251                    
P 19  17104.144142  -9397.335646 -18133.740638    220.639128                    
V 19  -7267.337113  21452.260380 -18457.489319      0.050531                    
P 20  13637.998874  -8763.610248  21013.834344    480.324081                    
V 20  20915.805283  16711.763332  -6835.750827     -0.031090                    
P 21  -5934.946887  16236.523483 -19331.008812    158.396508                    
V 21 -25299.124718   6708.139770  13721.576571     -0.005996                    
P 22 -16639.725301  12802.923313 -15743.264288    341.352100                    
V 22   5433.788102 -20224.817167 -21791.542250      0.069210                    
P 23 -20955.832213 -15589.277747  -5207.022025     -0.819126                    
V 23  -3043.568596  -6274.281534  30963.368308     -0.003078                    
P 24    338.812759 -16520.660366 -21053.948281    108.778957                    
V 24  25098.312897  -7461.758272   6780.203149     -0.141525                    
P 25 -16816.722029 -20531.359805  -3299.499480    379.915256                    
V 25   4601.314469    824.028002 -31084.553029      0.039410                    
P 26 -16619.650710   4844.940426  20130.624352    231.555732                    
V 26 -18224.542471 -18255.129153 -10282.679117      0.014471                    
P 27 -12610.260693  21170.326410   9152.857962    201.775990                    
V 27    793.526796 -12300.244619  29249.859137     -0.058008                    
P 28  18042.381890   1789.457167 -18817.896315    331.810617                    
V 28  14396.503020  20541.339271  15588.705565     -0.042030                    
P 29  -7047.087183 -17268.940642  18832.877703   -557.740229                    
V 29   9533.337921 -22042.765350 -16686.390453     -0.030593                    
P 30  25429.914528    282.200978   8191.489403   -537.224229                    
V 30  -9277.155968   5337.098762  28685.722238     -0.000304                    
P 31 -25856.932768   6887.459644   1567.584534   -195.966609                    
V 31  -2654.904771  -2074.728251 -31248.396972     -0.013261                    
P 32 -15927.851828   2342.591915 -20942.093328   -255.967932                    
V 32   6491.883454 -26202.870749  -8005.665513     -0.117815                    
EOF
